ECHOSTAR 6              
1 26402U 00038A   16204.26697515 -.00000156  00000-0  00000+0 0  9991
2 26402   3.5569  68.8743 0003742  55.9078 175.5550  1.00267520 58644
INTELSAT 9 (IS-9)       
1 26451U 00043A   16203.44457784 -.00000279  00000-0  00000+0 0  9998
2 26451   2.8849  73.0078 0002356  46.8899 296.6798  1.00273117 58569
BRASILSAT B4            
1 26469U 00046A   16204.39851747 -.00000221  00000-0  00000+0 0  9999
2 26469   0.9756  87.1631 0003241  26.8680 245.9979  1.00274439 58370
NILESAT 102             
1 26470U 00046B   16204.26084016 -.00000067  00000-0  00000+0 0  9992
2 26470   0.9955  84.9881 0004211  57.5272 244.8161  1.00272105 58370
ASTRA 2B                
1 26494U 00054A   16203.91040476  .00000145  00000-0  00000+0 0  9996
2 26494   1.5365  80.0161 0004453  45.7975 173.3639  1.00273296 57965
AMC-7 (GE-7)            
1 26495U 00054B   16203.54223045  .00000081  00000-0  00000+0 0  9990
2 26495   0.0383  53.4533 0000511 136.2113 170.3344  1.00268711 57986
NSS-11 (AAP-1)          
1 26554U 00059A   16202.99357535  .00000000  00000-0  10000-3 0  9997
2 26554   0.0160  32.0122 0002595  78.3668 294.6313  1.00264261 57912
N-SAT-110 (JCSAT-110)   
1 26559U 00060A   16201.51506037 -.00000356  00000-0  00000-0 0  9995
2 26559   0.0409 265.3326 0000072  97.4931 230.3848  1.00270775  4989
AMC-6 (GE-6)            
1 26580U 00067A   16203.51692616 -.00000267  00000-0  00000+0 0  9997
2 26580   0.0443 293.9211 0003142 197.3285 282.5401  1.00271133 57716
INTELSAT 12 (IS-12)     
1 26590U 00068A   16204.19399426  .00000129  00000-0  00000+0 0  9993
2 26590   0.0624 258.2632 0002142 224.9562 291.9607  1.00266950 57536
INTELSAT 1R (IS-1R)     
1 26608U 00072A   16203.24755221 -.00000289  00000-0  00000+0 0  9990
2 26608   0.0551 234.4443 0001551 331.2865 132.8358  1.00272081 57372
ANIK F1                 
1 26624U 00076A   16202.46850176 -.00000080  00000-0  00000+0 0  9999
2 26624   0.0166 126.6062 0003213   4.7488 228.6688  1.00271593 57446
ASTRA 2D                
1 26638U 00081A   16203.20819615  .00000000  00000-0  10000-3 0  9992
2 26638   3.0092  71.6112 0003451  67.4561 292.5149  1.00270721 57117
AMC-8 (GE-8)            
1 26639U 00081B   16204.40239286  .00000096  00000-0  00000+0 0  9996
2 26639   0.0137  17.5103 0002177 103.7290 185.1730  1.00272943 57000
TURKSAT 2A              
1 26666U 01002A   16203.28117594  .00000000  00000-0  10000-3 0  9992
2 26666   0.4717  84.0099 0003584  24.0948 334.5858  1.00273074 56881
SKYNET 4F               
1 26695U 01005B   16203.30910667 -.00000253  00000-0  00000+0 0  9998
2 26695   8.4994  39.0619 0002523  78.6139 259.0909  1.00273323 56600
EUTELSAT 33C            
1 26719U 01011A   16204.06160304  .00000147  00000-0  00000+0 0  9992
2 26719   0.0626 356.5293 0002724 123.1952 235.7673  1.00272563 56316
INTELSAT 10 (IS-10)     
1 26766U 01019A   16203.84037644  .00000118  00000-0  00000+0 0  9995
2 26766   0.8291  86.7439 0002318  20.4990 182.8097  1.00270453 55652
INTELSAT 901 (IS-901)   
1 26824U 01024A   16204.26345970 -.00000149  00000-0  00000+0 0  9992
2 26824   0.0445 279.4568 0003044 209.7025 248.1162  1.00272222 55332
ASTRA 2C                
1 26853U 01025A   16203.94220946  .00000038  00000-0  00000+0 0  9990
2 26853   0.0975 288.2540 0003410 190.9896 220.3626  1.00272907 55308
ARTEMIS                 
1 26863U 01029A   16203.62560363  .00000031  00000-0  00000+0 0  9993
2 26863  12.3641  36.5806 0003762 103.6076  79.8810  1.00439023 56122
INTELSAT 902 (IS-902)   
1 26900U 01039A   16203.98938243  .00000025  00000-0  00000+0 0  9994
2 26900   0.0113  32.8800 0002889  94.6523 230.7946  1.00271659 54507
EUTELSAT 8 WEST A       
1 26927U 01042A   16204.14578870 -.00000109  00000-0  00000+0 0  9996
2 26927   0.0681 345.4915 0005022 130.9015 223.9102  1.00271488 54258
DIRECTV 4S              
1 26985U 01052A   16204.28248508 -.00000122  00000-0  00000+0 0  9993
2 26985   0.0455 243.7930 0002006 246.5257 170.6269  1.00271804 53724
INSAT-3C                
1 27298U 02002A   16203.87991304 -.00000085  00000-0  00000+0 0  9998
2 27298   0.0170  67.1492 0005897  33.4278 230.2348  1.00272650 53084
ECHOSTAR 7              
1 27378U 02006A   16204.15257954 -.00000008  00000-0  00000+0 0  9994
2 27378   0.0575 275.6854 0000607 241.6329  79.1226  1.00263343 52795
INTELSAT 904 (IS-904)   
1 27380U 02007A   16203.02132682  .00000042  00000-0  00000+0 0  9990
2 27380   0.0463 272.1826 0003362 211.9002 242.8013  1.00271277 52804
TDRS 9                  
1 27389U 02011A   16203.43293362  .00000000  00000-0  10000-3 0  9991
2 27389   4.5706  83.6109 0014160 235.1692 124.6220  1.00267484 54165
JCSAT-2A                
1 27399U 02015A   16203.51021697 -.00000173  00000-0  00000+0 0  9992
2 27399   0.0259  76.4243 0001334 167.3352  33.6177  1.00271821 52345
ASTRA 3A                
1 27400U 02015B   16203.70867164 -.00000036  00000-0  00000+0 0  9991
2 27400   3.1816  70.3716 0000396  63.0492 296.9247  1.00695133 52442
INTELSAT 903 (IS-903)   
1 27403U 02016A   16204.10824390 -.00000247  00000-0  00000+0 0  9998
2 27403   0.0195  60.9411 0002952  52.7787 191.0119  1.00270338 52371
NSS-7                   
1 27414U 02019A   16203.45778020 -.00000163  00000-0  00000+0 0  9995
2 27414   1.2114  84.8944 0002592  34.9417 324.5983  1.00272089 52282
DIRECTV 5 (TEMPO 1)     
1 27426U 02023A   16204.47084669 -.00000065  00000-0  00000+0 0  9996
2 27426   0.0173  60.8919 0003598  67.0653 232.0705  1.00272099 52049
INTELSAT 905 (IS-905)   
1 27438U 02027A   16204.07563098 -.00000192  00000-0  00000+0 0  9998
2 27438   0.0030   2.7977 0002346 106.4835 193.6919  1.00272358 51690
EXPRESS-A4              
1 27441U 02029A   16204.28014395 -.00000256  00000-0  00000+0 0  9999
2 27441   5.4961  58.7205 0003271  67.7548  60.0016  1.00267499 51706
GALAXY 3C (G-3C)        
1 27445U 02030A   16202.43441380 -.00000157  00000-0  00000+0 0  9998
2 27445   0.0241 322.2571 0001753  10.0294  27.7001  1.00270157 51674
EUTELSAT 5 WEST A       
1 27460U 02035A   16204.17977578 -.00000051  00000-0  00000+0 0  9999
2 27460   0.0437 344.9928 0005203 134.8741 240.1803  1.00271989 51485
N-STAR C                
1 27461U 02035B   16203.50188341 -.00000318  00000-0  00000+0 0  9994
2 27461   4.0143  66.7373 0003885  18.2411 171.3238  1.00268119 51398
EUTELSAT 33D            
1 27499U 02038A   16203.17646640  .00000000  00000-0  10000-3 0  9994
2 27499   0.1260  76.8249 0003082  79.7565 276.6753  1.00270383 50948
ECHOSTAR 8              
1 27501U 02039A   16203.42764547 -.00000249  00000-0  00000+0 0  9995
2 27501   0.3980  89.9653 0003278  39.0008 247.6897  1.00270048 51008
EUTELSAT 12 WEST A      
1 27508U 02040A   16202.27095595 -.00000250  00000-0  00000+0 0  9998
2 27508   0.0662 355.2348 0002103 139.7282 225.0505  1.00275331 50967
METEOSAT-8 (MSG-1)      
1 27509U 02040B   16203.30315808  .00000000  00000-0  10000-3 0  9993
2 27509   4.2614  59.6258 0000561 140.1088 219.9339  1.00391802 50983
INTELSAT 906 (IS-906)   
1 27513U 02041A   16203.55978652  .00000008  00000-0  00000+0 0  9991
2 27513   0.0363 273.7503 0002153 223.1896  68.4498  1.00269933 50693
KODAMA (DRTS)           
1 27516U 02042B   16203.09466677  .00000000  00000-0  10000-3 0  9990
2 27516   4.4417  64.0216 0002758  47.5950 312.4428  1.00265735 50787
KALPANA-1 (METSAT 1)    
1 27525U 02043A   16203.12282283 -.00000090  00000-0  00000+0 0  9999
2 27525   5.7901  57.4798 0012196 218.8738 141.0887  1.00272219 50762
HISPASAT 1D             
1 27528U 02044A   16203.28692097  .00000000  00000-0  10000-3 0  9993
2 27528   0.0271 335.3324 0002667 103.7302 293.6715  1.00266462 50663
TDRS 10                 
1 27566U 02055A   16203.81761226  .00000071  00000-0  00000+0 0  9990
2 27566   4.4570  59.9093 0005063 212.7066 147.3112  1.00269387 49953
NSS-6                   
1 27603U 02057A   16203.11122382  .00000000  00000-0  10000-3 0  9998
2 27603   0.0385  87.2215 0000448 357.4665 349.6038  1.00264743 49804
NIMIQ 2                 
1 27632U 02062A   16203.17725649  .00000000  00000-0  00000+0 0  9992
2 27632   1.3035  83.9745 0006355 322.6130  36.8906  0.99500975 49601
INTELSAT 907 (IS-907)   
1 27683U 03007A   16203.24472124 -.00000209  00000-0  00000+0 0  9995
2 27683   0.0155  48.6816 0003036  73.6167 237.7311  1.00270603 49112
INSAT-3A                
1 27714U 03013A   16203.15392449  .00000000  00000-0  10000-3 0  9991
2 27714   0.0528 103.3315 0007408 356.8058 348.0516  1.00265409 48677
GALAXY 12 (G-12)        
1 27715U 03013B   16204.32428737  .00000050  00000-0  00000+0 0  9992
2 27715   0.0431 256.4215 0002320 245.6233 146.1703  1.00271644 48738
ASIASAT 4               
1 27718U 03014A   16203.57339539 -.00000367  00000-0  00000+0 0  9995
2 27718   0.0094  53.9368 0001424  24.0553 190.3247  1.00272158 48648
HELLAS-SAT 2            
1 27811U 03020A   16204.19310556  .00000144  00000-0  00000+0 0  9995
2 27811   0.0184  60.0034 0004708  61.8633 287.0030  1.00270214 48079
AMC-9 (GE-12)           
1 27820U 03024A   16203.44399341 -.00000223  00000-0  00000+0 0  9994
2 27820   0.0236 321.7133 0002938 165.6997 249.0313  1.00271093 48060
THURAYA-2               
1 27825U 03026A   16204.03868611  .00000124  00000-0  00000+0 0  9997
2 27825   4.6268  27.7356 0004714  95.6657 234.7272  1.00272521 48072
OPTUS C1                
1 27831U 03028B   16204.46599459 -.00000156  00000-0  00000+0 0  9990
2 27831   0.0189 230.4716 0004151 273.7793 120.1606  1.00269658 48053
ECHOSTAR 12 (RAINBOW 1) 
1 27852U 03033A   16204.21298155 -.00000291  00000-0  00000+0 0  9991
2 27852   0.0538 272.3192 0001350 180.4282 222.9555  1.00273724 47717
GALAXY 23 (G-23)        
1 27854U 03034A   16204.28195147  .00000004  00000-0  00000+0 0  9999
2 27854   0.0115  41.8378 0003369  86.7906 152.3427  1.00271439 52270
